{
  "type": "FeatureCollection",
  "features": [
    {
      "type": "Feature",
      "properties": {
        "norad_id": 67117,
        "name": "STARLINK-35674",
        "group": "last-30-days",
        "lat": 34.30948444325305,
        "lon": 2.5428254517364346,
        "alt_km": 333.3909767469577,
        "timestamp": "2025-12-26T22:28:04.501670+00:00",
        "meta_object_name": "STARLINK-35674",
        "meta_object_id": "2025-299R",
        "meta_epoch": "2025-12-26T18:00:02.998944",
        "meta_mean_motion": 15.7807819,
        "meta_eccentricity": 0.000138,
        "meta_inclination": 42.9983,
        "meta_ra_of_asc_node": 230.7614,
        "meta_arg_of_pericenter": 263.5577,
        "meta_mean_anomaly": 242.1783,
        "meta_ephemeris_type": 0,
        "meta_classification_type": "U",
        "meta_norad_cat_id": 67117,
        "meta_element_set_no": 999,
        "meta_rev_at_epoch": 285,
        "meta_bstar": -0.011717,
        "meta_mean_motion_dot": -0.01807447,
        "meta_mean_motion_ddot": 0,
        "tle_line1": "1 67117U 25299R   25360.75003471 -.01807447  00000+0 -11717-1 0  9992",
        "tle_line2": "2 67117  42.9983 230.7614 0001380 263.5577 242.1783 15.78078190  2857"
      },
      "geometry": {
        "type": "Point",
        "coordinates": [
          2.5428254517364346,
          34.30948444325305
        ]
      }
    },
    {
      "type": "Feature",
      "properties": {
        "norad_id": 67118,
        "name": "STARLINK-35701",
        "group": "last-30-days",
        "lat": 33.46573883874788,
        "lon": 4.434167681901113,
        "alt_km": 333.62354707233226,
        "timestamp": "2025-12-26T22:28:04.501681+00:00",
        "meta_object_name": "STARLINK-35701",
        "meta_object_id": "2025-299S",
        "meta_epoch": "2025-12-26T18:00:02.998944",
        "meta_mean_motion": 15.78085647,
        "meta_eccentricity": 0.0001373,
        "meta_inclination": 42.9981,
        "meta_ra_of_asc_node": 230.7567,
        "meta_arg_of_pericenter": 275.8571,
        "meta_mean_anomaly": 231.655,
        "meta_ephemeris_type": 0,
        "meta_classification_type": "U",
        "meta_norad_cat_id": 67118,
        "meta_element_set_no": 999,
        "meta_rev_at_epoch": 301,
        "meta_bstar": -0.011734,
        "meta_mean_motion_dot": -0.01810176,
        "meta_mean_motion_ddot": 0,
        "tle_line1": "1 67118U 25299S   25360.75003471 -.01810176  00000+0 -11734-1 0  9995",
        "tle_line2": "2 67118  42.9981 230.7567 0001373 275.8571 231.6550 15.78085647  3014"
      },
      "geometry": {
        "type": "Point",
        "coordinates": [
          4.434167681901113,
          33.46573883874788
        ]
      }
    },
    {
      "type": "Feature",
      "properties": {
        "norad_id": 67119,
        "name": "STARLINK-36179",
        "group": "last-30-days",
        "lat": 31.979556415580106,
        "lon": 7.53992028474252,
        "alt_km": 333.6325272726599,
        "timestamp": "2025-12-26T22:28:04.501691+00:00",
        "meta_object_name": "STARLINK-36179",
        "meta_object_id": "2025-299T",
        "meta_epoch": "2025-12-26T18:00:02.998944",
        "meta_mean_motion": 15.78119437,
        "meta_eccentricity": 0.0001359,
        "meta_inclination": 42.9979,
        "meta_ra_of_asc_node": 230.7486,
        "meta_arg_of_pericenter": 267.0992,
        "meta_mean_anomaly": 243.4014,
        "meta_ephemeris_type": 0,
        "meta_classification_type": "U",
        "meta_norad_cat_id": 67119,
        "meta_element_set_no": 999,
        "meta_rev_at_epoch": 306,
        "meta_bstar": -0.011716,
        "meta_mean_motion_dot": -0.01810191,
        "meta_mean_motion_ddot": 0,
        "tle_line1": "1 67119U 25299T   25360.75003471 -.01810191  00000+0 -11716-1 0  9993",
        "tle_line2": "2 67119  42.9979 230.7486 0001359 267.0992 243.4014 15.78119437  3062"
      },
      "geometry": {
        "type": "Point",
        "coordinates": [
          7.53992028474252,
          31.979556415580106
        ]
      }
    },
    {
      "type": "Feature",
      "properties": {
        "norad_id": 67120,
        "name": "STARLINK-36217",
        "group": "last-30-days",
        "lat": 32.69578432116024,
        "lon": 6.076820761301878,
        "alt_km": 333.6735985338246,
        "timestamp": "2025-12-26T22:28:04.501701+00:00",
        "meta_object_name": "STARLINK-36217",
        "meta_object_id": "2025-299U",
        "meta_epoch": "2025-12-26T18:00:02.998944",
        "meta_mean_motion": 15.78101226,
        "meta_eccentricity": 0.0001421,
        "meta_inclination": 42.9981,
        "meta_ra_of_asc_node": 230.7529,
        "meta_arg_of_pericenter": 271.3747,
        "meta_mean_anomaly": 237.7074,
        "meta_ephemeris_type": 0,
        "meta_classification_type": "U",
        "meta_norad_cat_id": 67120,
        "meta_element_set_no": 999,
        "meta_rev_at_epoch": 306,
        "meta_bstar": -0.011747,
        "meta_mean_motion_dot": -0.01813146,
        "meta_mean_motion_ddot": 0,
        "tle_line1": "1 67120U 25299U   25360.75003471 -.01813146  00000+0 -11747-1 0  9992",
        "tle_line2": "2 67120  42.9981 230.7529 0001421 271.3747 237.7074 15.78101226  3060"
      },
      "geometry": {
        "type": "Point",
        "coordinates": [
          6.076820761301878,
          32.69578432116024
        ]
      }
    },
    {
      "type": "Feature",
      "properties": {
        "norad_id": 67121,
        "name": "STARLINK-36124",
        "group": "last-30-days",
        "lat": 30.135874219019577,
        "lon": 11.068425590297268,
        "alt_km": 333.95019885376223,
        "timestamp": "2025-12-26T22:28:04.501711+00:00",
        "meta_object_name": "STARLINK-36124",
        "meta_object_id": "2025-299V",
        "meta_epoch": "2025-12-26T18:00:02.998944",
        "meta_mean_motion": 15.78132974,
        "meta_eccentricity": 0.0001383,
        "meta_inclination": 42.9979,
        "meta_ra_of_asc_node": 230.7402,
        "meta_arg_of_pericenter": 273.5254,
        "meta_mean_anomaly": 240.5084,
        "meta_ephemeris_type": 0,
        "meta_classification_type": "U",
        "meta_norad_cat_id": 67121,
        "meta_element_set_no": 999,
        "meta_rev_at_epoch": 306,
        "meta_bstar": -0.011734,
        "meta_mean_motion_dot": -0.01813683,
        "meta_mean_motion_ddot": 0,
        "tle_line1": "1 67121U 25299V   25360.75003471 -.01813683  00000+0 -11734-1 0  9995",
        "tle_line2": "2 67121  42.9979 230.7402 0001383 273.5254 240.5084 15.78132974  3069"
      },
      "geometry": {
        "type": "Point",
        "coordinates": [
          11.068425590297268,
          30.135874219019577
        ]
      }
    },
    {
      "type": "Feature",
      "properties": {
        "norad_id": 67122,
        "name": "STARLINK-36188",
        "group": "last-30-days",
        "lat": 29.283644032693015,
        "lon": 12.599202880374632,
        "alt_km": 333.9480526736488,
        "timestamp": "2025-12-26T22:28:04.501721+00:00",
        "meta_object_name": "STARLINK-36188",
        "meta_object_id": "2025-299W",
        "meta_epoch": "2025-12-26T18:00:02.998944",
        "meta_mean_motion": 15.78145109,
        "meta_eccentricity": 0.000143,
        "meta_inclination": 42.9982,
        "meta_ra_of_asc_node": 230.7366,
        "meta_arg_of_pericenter": 265.6498,
        "meta_mean_anomaly": 249.9583,
        "meta_ephemeris_type": 0,
        "meta_classification_type": "U",
        "meta_norad_cat_id": 67122,
        "meta_element_set_no": 999,
        "meta_rev_at_epoch": 306,
        "meta_bstar": -0.011709,
        "meta_mean_motion_dot": -0.01811134,
        "meta_mean_motion_ddot": 0,
        "tle_line1": "1 67122U 25299W   25360.75003471 -.01811134  00000+0 -11709-1 0  9997",
        "tle_line2": "2 67122  42.9982 230.7366 0001430 265.6498 249.9583 15.78145109  3069"
      },
      "geometry": {
        "type": "Point",
        "coordinates": [
          12.599202880374632,
          29.283644032693015
        ]
      }
    },
    {
      "type": "Feature",
      "properties": {
        "norad_id": 67123,
        "name": "STARLINK-36151",
        "group": "last-30-days",
        "lat": 31.08325213683754,
        "lon": 9.296851990910913,
        "alt_km": 333.76075813671196,
        "timestamp": "2025-12-26T22:28:04.501735+00:00",
        "meta_object_name": "STARLINK-36151",
        "meta_object_id": "2025-299X",
        "meta_epoch": "2025-12-26T18:00:02.998944",
        "meta_mean_motion": 15.78129214,
        "meta_eccentricity": 0.0001406,
        "meta_inclination": 42.9983,
        "meta_ra_of_asc_node": 230.7451,
        "meta_arg_of_pericenter": 267.3716,
        "meta_mean_anomaly": 244.8694,
        "meta_ephemeris_type": 0,
        "meta_classification_type": "U",
        "meta_norad_cat_id": 67123,
        "meta_element_set_no": 999,
        "meta_rev_at_epoch": 306,
        "meta_bstar": -0.011732,
        "meta_mean_motion_dot": -0.01813084,
        "meta_mean_motion_ddot": 0,
        "tle_line1": "1 67123U 25299X   25360.75003471 -.01813084  00000+0 -11732-1 0  9990",
        "tle_line2": "2 67123  42.9983 230.7451 0001406 267.3716 244.8694 15.78129214  3067"
      },
      "geometry": {
        "type": "Point",
        "coordinates": [
          9.296851990910913,
          31.08325213683754
        ]
      }
    }
  ]
}